COSMOS 2425 (716)       
1 29670U 06062A   21091.09254392  .00000046  00000-0  00000-0 0  9995
2 29670  64.8661 258.0600 0024476 349.0568 209.6588  2.13113585111028
COSMOS 2433 (720)       
1 32275U 07052A   21095.60759831 -.00000091  00000-0  00000-0 0  9990
2 32275  66.0507  19.2033 0003484 283.1954 316.5706  2.13104168104632
COSMOS 2432 (719)       
1 32276U 07052B   21095.48829866 -.00000090  00000-0  00000-0 0  9992
2 32276  66.0627  19.3013 0012012 330.0474 127.6568  2.13103645104637
COSMOS 2434 (721)       
1 32393U 07065A   21095.61649216  .00000031  00000-0  00000-0 0  9994
2 32393  64.4834 256.3999 0004941  81.7335  53.0440  2.13103114103342
COSMOS 2436 (723)       
1 32395U 07065C   21095.70331581  .00000030  00000-0  00000-0 0  9998
2 32395  64.4927 256.4492 0015629   7.8951 329.6158  2.13103007103275
COSMOS 2456 (730)       
1 36111U 09070A   21095.61864148  .00000035  00000-0  00000-0 0  9991
2 36111  64.2637 136.0801 0005379 305.1934   2.7346  2.13099232 88009
COSMOS 2457 (733)       
1 36112U 09070B   21095.49422457  .00000034  00000-0  00000-0 0  9990
2 36112  64.2461 135.9720 0004801 188.0078 148.2737  2.13101444 88008
COSMOS 2459 (731)       
1 36400U 10007A   21095.28977801 -.00000090  00000-0  00000+0 0  9999
2 36400  65.9488  18.1500 0026979 348.4291 223.9129  2.13105899 86341
COSMOS 2461 (735)       
1 36401U 10007B   21095.29342383 -.00000090  00000-0  00000-0 0  9993
2 36401  65.9443  18.1129 0021709   4.3219 212.4444  2.13103905 86354
COSMOS 2460 (732)       
1 36402U 10007C   21095.37376406 -.00000091  00000-0  00000-0 0  9997
2 36402  65.9312  18.0695 0001792 345.3388 237.1309  2.13106325 86355
COSMOS 2464 (736)       
1 37139U 10041C   21095.72179148  .00000028  00000-0  00000+0 0  9994
2 37139  64.0859 255.6896 0028706  14.5038  62.5178  2.13100789 82428
COSMOS 2471 (701K)      
1 37372U 11009A   21095.69864425 -.00000093  00000-0  00000-0 0  9997
2 37372  65.9262  17.9955 0013549 230.8258  41.4858  2.13081311 78634
COSMOS 2476 (744)       
1 37867U 11064A   21095.69385499  .00000034  00000-0  00000-0 0  9990
2 37867  64.5586 137.2619 0021629 239.9265  27.4388  2.13101933 73355
COSMOS 2477 (745)       
1 37868U 11064B   21095.58121559  .00000033  00000-0  00000-0 0  9993
2 37868  64.5667 137.3278 0019189 241.8530 117.4495  2.13101712 73302
COSMOS 2475 (743)       
1 37869U 11064C   21095.55051802  .00000033  00000-0  00000-0 0  9994
2 37869  64.5745 137.3325 0023454 260.0558  33.3199  2.13101916 73310
COSMOS 2485 (747)       
1 39155U 13019A   21095.62251238  .00000034  00000-0  00000-0 0  9990
2 39155  64.7251 137.5974 0022054 235.7656  21.3494  2.13101908 61828
COSMOS 2492 (754)       
1 39620U 14012A   21095.40909039 -.00000091  00000-0  00000-0 0  9990
2 39620  65.8186  17.8095 0015128 326.1483 162.1234  2.13103313 54779
COSMOS 2500 (755)       
1 40001U 14032A   21095.56059257 -.00000092  00000-0  00000-0 0  9993
2 40001  65.7606  17.6994 0005143 221.2221 243.0898  2.13102676 52995
COSMOS 2501 (702K)      
1 40315U 14075A   21095.81844098  .00000027  00000-0  00000-0 0  9998
2 40315  63.7928 256.5203 0016023 206.5291 261.6527  2.13101096 49409
COSMOS 2514 (751)       
1 41330U 16008A   21095.69176861 -.00000093  00000-0  00000-0 0  9990
2 41330  65.5621  17.4937 0009070 224.7121 163.2346  2.13103023 40165
COSMOS 2516 (753)       
1 41554U 16032A   21095.38507404  .00000033  00000-0  00000-0 0  9995
2 41554  64.0195 256.6892 0011574 211.8875 194.4077  2.13106862 37768
COSMOS 2522 (752)       
1 42939U 17055A   21095.63626132  .00000031  00000-0  00000-0 0  9995
2 42939  64.2530 256.9470 0005123 245.6256 217.8140  2.13101957 27521
COSMOS 2527 (756)       
1 43508U 18053A   21095.82394413  .00000036  00000-0  00000-0 0  9997
2 43508  64.8902 137.5011 0008895 238.2453  41.2144  2.13102626 21817
COSMOS 2529 (757)       
1 43687U 18086A   21095.64609122  .00000032  00000-0  00000-0 0  9993
2 43687  64.4638 257.1442 0007552 277.3779 149.1543  2.13102111 18836
COSMOS 2534 (758)       
1 44299U 19030A   21095.15604843  .00000038  00000-0  00000-0 0  9990
2 44299  64.5376 257.0051 0011099 297.6408 247.8146  2.13102015 14469
COSMOS 2544 (759)       
1 44850U 19088A   21095.64591355  .00000034  00000-0  00000-0 0  9999
2 44850  64.8742 137.3671 0013353 264.5997 282.1034  2.13102392 10250
COSMOS 2545 (760)       
1 45358U 20018A   21095.66266517 -.00000093  00000-0  00000-0 0  9995
2 45358  64.8935  18.4633 0009278 262.5600 147.1092  2.13102882  8205
